GOES 19                 
1 60133U 24119A   26086.53159205 -.00000267  00000+0  00000+0 0  9996
2 60133   0.0337  10.9675 0000769  26.5130 263.6402  1.00270239  6143
FENGYUN 3H              
1 65815U 25219A   26086.79386557  .00000078  00000+0  56981-4 0  9993
2 65815  98.6707  29.1723 0000873  59.8464 300.2799 14.19937164 25835
