[{"OBJECT_NAME":"GOES 19","OBJECT_ID":"2024-119A","EPOCH":"2026-03-27T12:45:29.553120","MEAN_MOTION":1.00270239,"ECCENTRICITY":7.69e-5,"INCLINATION":0.0337,"RA_OF_ASC_NODE":10.9675,"ARG_OF_PERICENTER":26.513,"MEAN_ANOMALY":263.6402,"EPHEMERIS_TYPE":0,"CLASSIFICATION_TYPE":"U","NORAD_CAT_ID":60133,"ELEMENT_SET_NO":999,"REV_AT_EPOCH":614,"BSTAR":0,"MEAN_MOTION_DOT":-2.67e-6,"MEAN_MOTION_DDOT":0},{"OBJECT_NAME":"FENGYUN 3H","OBJECT_ID":"2025-219A","EPOCH":"2026-03-27T19:03:09.985248","MEAN_MOTION":14.19937164,"ECCENTRICITY":8.73e-5,"INCLINATION":98.6707,"RA_OF_ASC_NODE":29.1723,"ARG_OF_PERICENTER":59.8464,"MEAN_ANOMALY":300.2799,"EPHEMERIS_TYPE":0,"CLASSIFICATION_TYPE":"U","NORAD_CAT_ID":65815,"ELEMENT_SET_NO":999,"REV_AT_EPOCH":2583,"BSTAR":5.6981e-5,"MEAN_MOTION_DOT":7.8e-7,"MEAN_MOTION_DDOT":0}]
